{
    "links": {
        "self": "http://www.neowsapp.com/rest/v1/neo/3625707?api_key=iIulBulltgU6a56xZRHN4H3l9WmuAYTsLGpBGhQ2"
    },
    "id": "3625707",
    "neo_reference_id": "3625707",
    "name": "(2013 BE74)",
    "designation": "2013 BE74",
    "nasa_jpl_url": "http://ssd.jpl.nasa.gov/sbdb.cgi?sstr=3625707",
    "absolute_magnitude_h": 23.9,
    "estimated_diameter": {
        "kilometers": {
            "estimated_diameter_min": 0.04411182,
            "estimated_diameter_max": 0.0986370281
        },
        "meters": {
            "estimated_diameter_min": 44.1118199997,
            "estimated_diameter_max": 98.6370281305
        },
        "miles": {
            "estimated_diameter_min": 0.0274098057,
            "estimated_diameter_max": 0.0612901888
        },
        "feet": {
            "estimated_diameter_min": 144.7238235278,
            "estimated_diameter_max": 323.6123073718
        }
    },
    "is_potentially_hazardous_asteroid": false,
    "close_approach_data": [
        {
            "close_approach_date": "1984-02-02",
            "close_approach_date_full": "1984-Feb-02 00:11",
            "epoch_date_close_approach": 444528660000,
            "relative_velocity": {
                "kilometers_per_second": "5.3904882689",
                "kilometers_per_hour": "19405.7577679181",
                "miles_per_hour": "12057.9832086267"
            },
            "miss_distance": {
                "astronomical": "0.1395681273",
                "lunar": "54.2920015197",
                "kilometers": "20879094.563968851",
                "miles": "12973667.7650821038"
            },
            "orbiting_body": "Earth"
        },
        {
            "close_approach_date": "2013-02-01",
            "close_approach_date_full": "2013-Feb-01 20:25",
            "epoch_date_close_approach": 1359750300000,
            "relative_velocity": {
                "kilometers_per_second": "5.1426252752",
                "kilometers_per_hour": "18513.4509908754",
                "miles_per_hour": "11503.5384781914"
            },
            "miss_distance": {
                "astronomical": "0.1271102564",
                "lunar": "49.4458897396",
                "kilometers": "19015423.612593868",
                "miles": "11815636.3345286584"
            },
            "orbiting_body": "Earth"
        },
        {
            "close_approach_date": "2042-02-04",
            "close_approach_date_full": "2042-Feb-04 02:40",
            "epoch_date_close_approach": 2275094400000,
            "relative_velocity": {
                "kilometers_per_second": "6.3381433023",
                "kilometers_per_hour": "22817.3158884377",
                "miles_per_hour": "14177.7927530128"
            },
            "miss_distance": {
                "astronomical": "0.2300978954",
                "lunar": "89.5080813106",
                "kilometers": "34422155.043322798",
                "miles": "21388935.3258106924"
            },
            "orbiting_body": "Earth"
        },
        {
            "close_approach_date": "2044-01-31",
            "close_approach_date_full": "2044-Jan-31 15:04",
            "epoch_date_close_approach": 2337865440000,
            "relative_velocity": {
                "kilometers_per_second": "7.4711869191",
                "kilometers_per_hour": "26896.2729086192",
                "miles_per_hour": "16712.2980192473"
            },
            "miss_distance": {
                "astronomical": "0.2813634678",
                "lunar": "109.4503889742",
                "kilometers": "42091375.478693586",
                "miles": "26154367.9283040468"
            },
            "orbiting_body": "Earth"
        },
        {
            "close_approach_date": "2073-02-01",
            "close_approach_date_full": "2073-Feb-01 23:06",
            "epoch_date_close_approach": 3253215960000,
            "relative_velocity": {
                "kilometers_per_second": "5.4261315843",
                "kilometers_per_hour": "19534.0737034179",
                "miles_per_hour": "12137.7137408821"
            },
            "miss_distance": {
                "astronomical": "0.1430545713",
                "lunar": "55.6482282357",
                "kilometers": "21400659.160243131",
                "miles": "13297752.9771759678"
            },
            "orbiting_body": "Earth"
        }
    ],
    "orbital_data": {
        "orbit_id": "14",
        "orbit_determination_date": "2017-04-06 08:46:58",
        "first_observation_date": "2013-01-31",
        "last_observation_date": "2013-03-13",
        "data_arc_in_days": 41,
        "observations_used": 44,
        "orbit_uncertainty": "6",
        "minimum_orbit_intersection": ".12056",
        "jupiter_tisserand_invariant": "4.251",
        "epoch_osculation": "2459000.5",
        "eccentricity": ".3193174785154292",
        "semi_major_axis": "1.624172016793593",
        "inclination": "8.341315861982464",
        "ascending_node_longitude": "314.6418464420827",
        "orbital_period": "756.042940176887",
        "perihelion_distance": "1.105545503715743",
        "perihelion_argument": "175.0382982180645",
        "aphelion_distance": "2.142798529871442",
        "perihelion_time": "2459343.897851064957",
        "mean_anomaly": "196.4865012105512",
        "mean_motion": ".4761634305000889",
        "equinox": "J2000",
        "orbit_class": {
            "orbit_class_type": "AMO",
            "orbit_class_description": "Near-Earth asteroid orbits similar to that of 1221 Amor",
            "orbit_class_range": "1.017 AU < q (perihelion) < 1.3 AU"
        }
    },
    "is_sentry_object": false
}